[{"OBJECT_NAME":"STARLINK-32649","OBJECT_ID":"2024-239E","EPOCH":"2026-03-09T15:40:31.744416","MEAN_MOTION":15.30205459,"ECCENTRICITY":9.781e-5,"INCLINATION":53.1593,"RA_OF_ASC_NODE":193.7144,"ARG_OF_PERICENTER":72.4885,"MEAN_ANOMALY":287.6223,"EPHEMERIS_TYPE":0,"CLASSIFICATION_TYPE":"U","NORAD_CAT_ID":62305,"ELEMENT_SET_NO":999,"REV_AT_EPOCH":6938,"BSTAR":0.00071067092,"MEAN_MOTION_DOT":0.00020751,"MEAN_MOTION_DDOT":0},{"OBJECT_NAME":"COSMOS 2535 DEB","OBJECT_ID":"2019-039M","EPOCH":"2026-03-08T03:25:35.903424","MEAN_MOTION":15.28322551,"ECCENTRICITY":0.0014917,"INCLINATION":97.5619,"RA_OF_ASC_NODE":139.2722,"ARG_OF_PERICENTER":329.0964,"MEAN_ANOMALY":30.9396,"EPHEMERIS_TYPE":0,"CLASSIFICATION_TYPE":"U","NORAD_CAT_ID":44641,"ELEMENT_SET_NO":999,"REV_AT_EPOCH":35167,"BSTAR":0.0011539757,"MEAN_MOTION_DOT":0.0003196,"MEAN_MOTION_DDOT":0}]
